15P/Finlay,e,6.7973,13.7209,347.8444,3.503523,0.1502957,0.71686501,274.0818,12/20.0/2019,2000,g 12.0,4.0
# From MPC 92276
16P/Brooks,e,3.0051,138.9914,245.1420,3.659516,0.1407889,0.48814767,291.7590,12/20.0/2019,2000,g  7.5,10.0
# From MPC114607
17P/Holmes,e,19.0226,326.6617,24.5762,3.635215,0.1422031,0.42825050,299.1239,12/20.0/2019,2000,g 10.0,6.0
# From MPC 92984
19P/Borrelly,e,29.7390,74.6374,351.8090,3.598271,0.1443987,0.64035364,248.2826,12/20.0/2019,2000,g  4.5,10.0
# From MPC111773
21P/Giacobini-Zinner,e,32.0032,195.3768,172.8489,3.496493,0.1507492,0.71050138,70.2037,12/20.0/2019,2000,g  9.0,6.0
# From MPC 94283
22P/Kopff,e,4.7414,120.8359,162.9387,3.443653,0.1542322,0.54881885,233.6938,12/20.0/2019,2000,g  3.0,10.4
# From MPC 14747
23P/Brorsen-Metcalf,e,19.1625,312.3030,128.9405,16.95770,0.0141141,0.97090246,0.0000,08/18.0449/1989,2000,g 10.0,6.0
# From MPC110085
24P/Schaumasse,e,11.7309,79.5874,57.7475,4.070456,0.1200161,0.70694669,91.4914,12/20.0/2019,2000,g  6.5,14.0
# From MPC 94674
26P/Grigg-Skjellerup,e,22.4479,211.5345,2.1945,3.013776,0.1883812,0.64079942,83.6864,12/20.0/2019,2000,g 12.0,16.0
# From MPC 78188
27P/Crommelin,e,29.1098,250.5732,196.0174,9.193393,0.0353582,0.91790675,108.5290,12/20.0/2019,2000,g 12.0,8.0
# From MPC114607
28P/Neujmin,e,14.3116,346.3468,347.4394,6.967659,0.0535888,0.77354352,335.9928,12/20.0/2019,2000,g  8.5,6.0
# From MPEC 2019-VB6
29P/Schwassmann-Wachmann,e,9.3671,312.3828,47.9744,6.030228,0.0665585,0.04366239,18.9432,12/20.0/2019,2000,g  4.0,4.0
# From MPC110085
30P/Reinmuth,e,8.2891,119.0767,13.1877,3.751254,0.1356561,0.51069451,115.1010,12/20.0/2019,2000,g  9.5,6.0
# From MPC108597
31P/Schwassmann-Wachmann,e,4.5472,114.1127,18.3277,4.242889,0.1127747,0.19268925,18.8356,12/20.0/2019,2000,g  5.0,8.0
# From MPC 92276
32P/Comas Sola,e,9.9439,57.6612,53.3052,4.498857,0.1032882,0.55670033,195.3055,12/20.0/2019,2000,g  6.5,8.0
# From MPEC 2013-O31
33P/Daniel,e,22.3653,66.3734,20.6447,4.079329,0.1196247,0.45385423,145.9588,12/20.0/2019,2000,g 10.0,12.0
# From  15, 452
35P/Herschel-Rigollet,e,64.479,356.230,29.138,28.5703,0.006454,0.9733225,0.000,12/25.7130/2091,2000,g  9.0,4.0
# From MPC105240
36P/Whipple,e,9.9529,181.8638,200.7551,4.129821,0.1174376,0.26832430,340.7912,12/20.0/2019,2000,g  8.5,6.0
# From MPEC 2018-HA5
37P/Forbes,e,8.9564,314.5704,330.0518,3.458513,0.1532392,0.53418359,91.1434,12/20.0/2019,2000,g 10.5,4.8
# From MPEC 2018-S50
38P/Stephan-Oterma,e,18.3534,77.9980,359.5625,11.26862,0.0260554,0.85905271,10.5281,12/20.0/2019,2000,g  3.5,12.0
# From MPC115887
39P/Oterma,e,1.5610,299.2544,94.7734,7.412120,0.0488417,0.22352293,299.5456,12/20.0/2019,2000,g  7.0,6.0
# From MPC100283
40P/Vaisala,e,11.4719,133.7930,47.4635,4.949690,0.0895029,0.63030510,166.6375,12/20.0/2019,2000,g  5.5,12.0
# From MPC105240
41P/Tuttle-Giacobini-Kresak,e,9.2220,141.0093,62.2562,3.085603,0.1818419,0.66052617,178.4901,12/20.0/2019,2000,g 10.0,16.0
# From MPC 94283
42P/Neujmin,e,3.9879,150.2057,147.1386,4.873057,0.0916224,0.58536430,157.1197,12/20.0/2019,2000,g 13.0,6.0
# From MPC102956
43P/Wolf-Harrington,e,9.5080,244.7979,223.7702,4.296229,0.1106810,0.44366383,132.6954,12/20.0/2019,2000,g  8.0,6.0
# From MPC 89313
44P/Reinmuth,e,5.8982,286.4824,58.1223,3.689062,0.1391010,0.42689412,240.9581,12/20.0/2019,2000,g  8.3,6.0
# From MPC103849
45P/Honda-Mrkos-Pajdusakova,e,4.3264,87.6927,327.9900,3.049071,0.1851197,0.81794109,201.2164,12/20.0/2019,2000,g 13.5,8.0
# From MPC114607
46P/Wirtanen,e,11.7449,82.1530,356.3659,3.091891,0.1812875,0.65855299,67.4571,12/20.0/2019,2000,g 14.0,6.0
# From NK 2718
47P/Ashbrook-Jackson,e,13.0315,356.9369,357.6056,4.125815,0.1176087,0.31764488,108.5328,12/20.0/2019,2000,g  9.0,4.0
# From MPEC 2015-M77
48P/Johnson,e,12.2077,110.1272,216.6011,3.499968,0.1505248,0.42724531,74.4599,12/20.0/2019,2000,g  9.0,4.0
# From MPEC 2015-M77
49P/Arend-Rigaux,e,19.0443,118.8055,332.9488,3.569478,0.1461494,0.59904634,76.3811,12/20.0/2019,2000,g  9.0,4.0
# From MPEC 2015-S97
50P/Arend,e,19.0962,355.1535,49.3716,4.089735,0.1191685,0.52846258,168.3749,12/20.0/2019,2000,g  9.5,6.0
# From NK 3013
51P-A/Harrington,e,5.4254,83.6777,269.2309,3.708841,0.1379897,0.54272866,219.6255,12/20.0/2019,2000,g 16.0,8.0
# From NK 3014
51P-A/Harrington,e,5.4247,83.6933,269.1915,3.709867,0.1379325,0.54280032,219.3826,12/20.0/2019,2000,g 10.0,8.0
# From NK 3014
51P-A/Harrington,e,5.4247,83.6933,269.1915,3.709848,0.1379335,0.54279723,219.3856,12/20.0/2019,2000,g 10.0,8.0
# From MPEC 2015-L08
51P-D/Harrington,e,5.4261,83.6832,269.1809,3.708932,0.1379847,0.54274276,219.6218,12/20.0/2019,2000,g 16.0,8.0
# From MPEC 2015-L08
51P-D/Harrington,e,5.4261,83.6822,269.1817,3.708920,0.1379853,0.54274334,219.6268,12/20.0/2019,2000,g 16.0,8.0
# From NK 3013
51P-D/Harrington,e,5.4254,83.6780,269.2305,3.708841,0.1379897,0.54272884,219.6256,12/20.0/2019,2000,g 16.0,8.0
# From NK 3013
51P-D/Harrington,e,5.4254,83.6780,269.2305,3.708841,0.1379897,0.54272897,219.6256,12/20.0/2019,2000,g 16.0,8.0
# From MPC 88330
52P/Harrington-Abell,e,10.2307,336.8378,139.6028,3.861864,0.1298699,0.53959000,274.8825,12/20.0/2019,2000,g 13.5,6.0
# From MPC100283
53P/Van Biesbroeck,e,6.6074,148.8527,134.3559,5.423212,0.0780403,0.55234822,103.6562,12/20.0/2019,2000,g  7.7,4.8
# From MPC 89011
54P/de Vico-Swift-NEAT,e,6.0598,358.8189,1.7702,3.793942,0.1333730,0.42513227,130.4975,12/20.0/2019,2000,g  9.0,4.0
# From MPC 31070
55P/Tempel-Tuttle,e,162.3604,235.4044,172.5580,10.34558,0.0296191,0.90685964,236.5634,12/20.0/2019,2000,g  9.0,4.0
# From MPC101100
56P/Slaughter-Burnham,e,8.1552,345.9761,44.0552,5.073531,0.0862459,0.50651071,107.7986,12/20.0/2019,2000,g  8.5,6.0
# From MPC 98565
57P/du Toit-Neujmin-Delporte,e,2.8497,188.7835,115.1917,3.447762,0.1539565,0.50062710,257.2421,12/20.0/2019,2000,g 12.5,6.0
# From NK 778
58P/Jackson-Neujmin,e,13.1002,159.0714,200.4548,4.083808,0.1194280,0.66269197,341.2450,12/20.0/2019,2000,g  9.0,4.0
# From MPC111774
59P/Kearns-Kwee,e,9.3411,312.8293,127.6539,4.491063,0.1035572,0.47490590,47.5722,12/20.0/2019,2000,g  7.0,6.0
# From MPEC 2015-M77
60P/Tsuchinshan,e,3.6066,267.5819,216.6238,3.512254,0.1497357,0.53767093,55.9563,12/20.0/2019,2000,g  9.0,4.0
# From MPEC 2015-Q71
61P/Shajn-Schaldach,e,5.9991,162.9925,221.9267,3.684158,0.1393788,0.42382950,215.0576,12/20.0/2019,2000,g  6.0,10.0
# From MPC109147
62P/Tsuchinshan,e,9.7210,90.1246,29.9229,3.421542,0.1557296,0.61358291,117.1777,12/20.0/2019,2000,g  8.0,10.0
# From MPC 84320
63P/Wild,e,19.7456,358.0135,169.1684,5.603694,0.0743006,0.64931689,181.8108,12/20.0/2019,2000,g 10.5,6.0
# From MPC111774
64P/Swift-Gehrels,e,8.9500,299.9988,97.1218,4.456183,0.1047754,0.68748785,43.0745,12/20.0/2019,2000,g  9.5,12.0
# From MPC104795
65P/Gunn,e,9.1841,62.0228,213.7335,3.883093,0.1288064,0.25000052,102.1944,12/20.0/2019,2000,g  5.0,6.0
# From MPC109147
66P/du Toit,e,18.6667,21.8855,257.2638,6.060134,0.0660664,0.78698560,38.3049,12/20.0/2019,2000,g  9.0,4.0
# From MPC 89011
67P/Churyumov-Gerasimenko,e,3.9224,37.4141,21.4325,3.447868,0.1539494,0.65456272,255.1777,12/20.0/2019,2000,g 11.0,4.0
# From MPC 75716
68P/Klemola,e,11.1109,175.0822,153.0597,4.948512,0.0895348,0.63749636,3.6674,12/20.0/2019,2000,g 10.0,4.0
# From MPC114607
69P/Taylor,e,22.0330,104.8306,343.5422,3.890626,0.1284325,0.41313414,35.5278,12/20.0/2019,2000,g  9.5,12.0
# From MPC 92276
70P/Kojima,e,6.5982,119.2678,1.8707,3.674935,0.1399038,0.45325660,264.2526,12/20.0/2019,2000,g 11.0,6.0
# From MPC107051
71P/Clark,e,9.4428,59.4424,208.9956,3.138014,0.1773053,0.49426881,160.0227,12/20.0/2019,2000,g  9.8,6.0
# From MPC 89011
72P/Denning-Fujikawa,e,10.9252,26.6919,346.6663,4.311979,0.1100751,0.81783858,219.6930,12/20.0/2019,2000,g 17.5,10.0
# From MPC106348
73P/Schwassmann-Wachmann,e,11.2361,69.6548,199.4272,3.093117,0.1811797,0.68574822,182.5836,12/20.0/2019,2000,g 11.5,6.0
# From MPC106348
73P-T/Schwassmann-Wachmann,e,11.2383,69.6573,199.4087,3.094676,0.1810428,0.68595149,182.4465,12/20.0/2019,2000,g 11.5,6.0
# From MPC102956
74P/Smirnova-Chernykh,e,6.6451,77.0521,89.0266,4.184445,0.1151456,0.15251638,78.2843,12/20.0/2019,2000,g  5.0,6.0
# From MPC118097
76P/West-Kohoutek-Ikemura,e,30.4569,84.1250,0.0211,3.475127,0.1521416,0.53820525,8.3460,12/20.0/2019,2000,g  8.0,12.0
# From MPC100283
77P/Longmore,e,24.3302,14.8051,196.8676,3.619757,0.1431149,0.35268505,188.2864,12/20.0/2019,2000,g  7.0,8.0
# From MPEC 2016-U66
78P/Gehrels,e,6.2484,210.5423,192.6717,3.740558,0.1362384,0.46167663,35.6038,12/20.0/2019,2000,g  9.0,4.0
# From MPC 94675
79P/du Toit-Hartley,e,3.1480,280.5252,281.8276,2.942834,0.1952340,0.61911440,90.3397,12/20.0/2019,2000,g 16.0,4.0
# From MPEC 2014-P41
80P/Peters-Hartley,e,29.9475,259.8220,339.2476,4.024285,0.1220874,0.59924741,227.6246,12/20.0/2019,2000,g  9.0,4.0
# From MPC105241
81P/Wild,e,3.2372,136.1099,41.7246,3.449833,0.1538179,0.53736832,192.0611,12/20.0/2019,2000,g  7.0,6.0
# From MPC 75717
82P/Gehrels,e,1.1283,239.3154,226.9848,4.138079,0.1170863,0.12189224,63.3245,12/20.0/2019,2000,g  5.0,8.0
# From MPC105241
84P/Giclas,e,7.5522,108.1746,281.5482,3.548002,0.1474783,0.51551582,335.4028,12/20.0/2019,2000,g  9.5,8.0
# From MPC109147
86P/Wild,e,15.4762,72.3784,179.2906,3.604546,0.1440218,0.37266446,247.6348,12/20.0/2019,2000,g 11.0,6.0
# From MPC105241
87P/Bus,e,2.6023,181.8622,24.9205,3.438056,0.1546089,0.38922846,338.1654,12/20.0/2019,2000,g  7.2,10.0
# From MPEC 2019-JE2
88P/Howell,e,4.3838,56.6862,235.9126,3.105339,0.1801111,0.56423495,309.2744,12/20.0/2019,2000,g 11.0,6.0
# From MPC100283
89P/Russell,e,12.0721,41.4260,250.2390,3.753882,0.1355137,0.40865880,149.0110,12/20.0/2019,2000,g 11.5,6.0
# From MPC107051
90P/Gehrels,e,9.6385,13.2211,29.1444,6.057300,0.0661128,0.50946035,60.4403,12/20.0/2019,2000,g  8.5,6.0
# From MPC105241
91P/Russell,e,14.0916,247.8297,354.7578,3.890880,0.1284199,0.33060730,318.2330,12/20.0/2019,2000,g  7.5,6.0
# From MPEC 2014-J58
92P/Sanguin,e,19.4696,181.4005,163.7033,5.346337,0.0797296,0.66019473,139.8360,12/20.0/2019,2000,g 12.0,6.0
# From NK 2707
